NORAD_CAT_ID,OBJECT_NAME,OBJECT_TYPE,EPOCH,MEAN_MOTION,ECCENTRICITY,INCLINATION,RA_OF_ASC_NODE,ARG_OF_PERICENTER,MEAN_ANOMALY,BSTAR,MEAN_MOTION_DOT,MEAN_MOTION_DDOT,TLE_LINE0,TLE_LINE1,TLE_LINE2,SEMIMAJOR_AXIS,PERIOD,APOGEE,PERIGEE,DECAYED
53546.0,STARLINK-4477,PAYLOAD,2024-07-30 21:11:52,15.08846153,0.0001504,53.218,167.926,105.5423,254.5735,6.6662e-05,7.73e-06,0.0,0 STARLINK-4477,1 53546U 22101V   24212.88325046  .00000773  00000-0  66662-4 0  9993,2 53546  53.2180 167.9260 0001504 105.5423 254.5735 15.08846153107869,6917.862,95.437,540.767,538.686,0.0
53546.0,STARLINK-4477,PAYLOAD,2024-07-31 03:33:25,15.08847553,0.0001443,53.2172,166.7384,98.4258,261.6898,0.00011277,1.508e-05,0.0,0 STARLINK-4477,1 53546U 22101V   24213.14820755  .00001508  00000-0  11277-3 0  9998,2 53546  53.2172 166.7384 0001443  98.4258 261.6898 15.08847553107901,6917.857,95.437,540.721,538.724,0.0
53546.0,STARLINK-4477,PAYLOAD,2024-07-31 21:02:40,15.0883832,0.0001345,53.2157,163.4681,93.3702,266.7444,9.9033e-05,1.288e-05,0.0,0 STARLINK-4477,1 53546U 22101V   24213.87685187  .00001288  00000-0  99033-4 0  9998,2 53546  53.2157 163.4681 0001345  93.3702 266.7444 15.08838320108015,6917.886,95.438,540.681,538.82,0.0
53546.0,STARLINK-4477,PAYLOAD,2024-08-01 03:24:13,15.08833084,0.0001537,53.2177,162.2747,103.8808,256.2355,1.0345e-05,-1.23e-06,0.0,0 STARLINK-4477,1 53546U 22101V   24214.14181759 -.00000123  00000-0  10345-4 0  9992,2 53546  53.2177 162.2747 0001537 103.8808 256.2355 15.08833084108055,6917.902,95.438,540.83,538.703,0.0
53546.0,STARLINK-4477,PAYLOAD,2024-08-02 03:14:59,15.0884023,0.0001336,53.2172,157.8197,99.9288,260.1854,1.5555e-05,-4e-07,0.0,0 STARLINK-4477,1 53546U 22101V   24215.13541431 -.00000040  00000-0  15555-4 0  9995,2 53546  53.2172 157.8197 0001336  99.9288 260.1854 15.08840230108209,6917.88,95.438,540.669,538.82,0.0
53546.0,STARLINK-4477,PAYLOAD,2024-08-02 12:47:17,15.08851497,0.000131,53.2177,156.0357,98.1902,261.9239,3.5907e-05,2.84e-06,0.0,0 STARLINK-4477,1 53546U 22101V   24215.53284619  .00000284  00000-0  35907-4 0  9993,2 53546  53.2177 156.0357 0001310  98.1902 261.9239 15.08851497108268,6917.845,95.437,540.616,538.804,0.0
53546.0,STARLINK-4477,PAYLOAD,2024-08-02 20:44:14,15.08839722,0.000242,53.2172,154.5482,89.0451,271.0818,0.00017608,2.515e-05,0.0,0 STARLINK-4477,1 53546U 22101V   24215.86405328  .00002515  00000-0  17608-3 0  9997,2 53546  53.2172 154.5482 0002420  89.0451 271.0818 15.08839722108314,6917.881,95.438,541.42,538.072,0.0
53546.0,STARLINK-4477,PAYLOAD,2024-08-03 12:38:04,15.08852294,0.0001372,53.2174,151.5751,100.5836,259.531,0.00022973,3.371e-05,0.0,0 STARLINK-4477,1 53546U 22101V   24216.52644371  .00003371  00000-0  22973-3 0  9996,2 53546  53.2174 151.5751 0001372 100.5836 259.5310 15.08852294108411,6917.843,95.437,540.657,538.759,0.0
53546.0,STARLINK-4477,PAYLOAD,2024-08-03 20:35:02,15.08828245,0.0001367,53.2176,150.0881,89.6707,270.4441,-5.6684e-05,-1.19e-05,0.0,0 STARLINK-4477,1 53546U 22101V   24216.85766841 -.00001190  00000-0 -56684-4 0  9995,2 53546  53.2176 150.0881 0001367  89.6707 270.4441 15.08828245108460,6917.916,95.438,540.727,538.836,0.0
53546.0,STARLINK-4477,PAYLOAD,2024-08-04 04:31:57,15.08841327,0.0001419,53.2174,148.6014,86.9824,273.133,6.3197e-05,7.18e-06,0.0,0 STARLINK-4477,1 53546U 22101V   24217.18885913  .00000718  00000-0  63197-4 0  9994,2 53546  53.2174 148.6014 0001419  86.9824 273.1330 15.08841327108516,6917.876,95.437,540.723,538.76,0.0
53546.0,STARLINK-4477,PAYLOAD,2024-08-04 12:28:52,15.08847925,0.0001469,53.2178,147.1144,88.7525,271.3636,0.00011012,1.465e-05,0.0,0 STARLINK-4477,1 53546U 22101V   24217.52005414  .00001465  00000-0  11012-3 0  9990,2 53546  53.2178 147.1144 0001469  88.7525 271.3636 15.08847925108565,6917.856,95.437,540.737,538.705,0.0
53546.0,STARLINK-4477,PAYLOAD,2024-08-05 12:19:39,15.08857823,0.0001647,53.2159,142.653,71.5387,288.5784,0.00039014,5.93e-05,0.0,0 STARLINK-4477,1 53546U 22101V   24218.51365164  .00005930  00000-0  39014-3 0  9994,2 53546  53.2159 142.6530 0001647  71.5387 288.5784 15.08857823108716,6917.826,95.436,540.83,538.552,0.0
53546.0,STARLINK-4477,PAYLOAD,2024-08-06 04:13:33,15.08811956,0.0001257,53.2153,139.674,83.3212,276.7923,-0.000294,-4.96e-05,0.0,0 STARLINK-4477,1 53546U 22101V   24219.17607659 -.00004960  00000-0 -29400-3 0  9997,2 53546  53.2153 139.6740 0001257  83.3212 276.7923 15.08811956108816,6917.966,95.439,540.701,538.962,0.0
53546.0,STARLINK-4477,PAYLOAD,2024-08-06 12:10:28,15.08827099,0.000138,53.2159,138.1947,82.0166,278.0983,0.00010118,1.322e-05,0.0,0 STARLINK-4477,1 53546U 22101V   24219.50727636  .00001322  00000-0  10118-3 0  9995,2 53546  53.2159 138.1947 0001380  82.0166 278.0983 15.08827099108867,6917.92,95.438,540.739,538.83,0.0
53546.0,STARLINK-4477,PAYLOAD,2024-08-07 00:53:34,15.08839249,0.0001688,53.2156,135.8158,63.3614,296.7551,0.00075855,0.00011805,0.0,0 STARLINK-4477,1 53546U 22101V   24220.03720098  .00011805  00000-0  75855-3 0  9996,2 53546  53.2156 135.8158 0001688  63.3614 296.7551 15.08839249108940,6917.883,95.438,540.915,538.58,0.0
53546.0,STARLINK-4477,PAYLOAD,2024-08-08 00:44:20,15.0885786,0.0001515,53.2172,131.3488,94.066,266.0505,0.00038601,5.864e-05,0.0,0 STARLINK-4477,1 53546U 22101V   24221.03078985  .00005864  00000-0  38601-3 0  9994,2 53546  53.2172 131.3488 0001515  94.0660 266.0505 15.08857860109091,6917.826,95.436,540.739,538.643,0.0
53546.0,STARLINK-4477,PAYLOAD,2024-08-08 21:24:19,15.08871093,0.000129,53.2162,127.4825,106.9364,253.177,0.00048139,7.388e-05,0.0,0 STARLINK-4477,1 53546U 22101V   24221.89189376  .00007388  00000-0  48139-3 0  9995,2 53546  53.2162 127.4825 0001290 106.9364 253.1770 15.08871093109225,6917.785,95.436,540.543,538.758,0.0
53546.0,STARLINK-4477,PAYLOAD,2024-08-09 10:07:23,15.08891395,0.0001548,53.2153,125.1173,145.4092,214.7001,0.00076094,0.0001186,0.0,0 STARLINK-4477,1 53546U 22101V   24222.42179442  .00011860  00000-0  76094-3 0  9999,2 53546  53.2153 125.1173 0001548 145.4092 214.7001 15.08891395109304,6917.723,95.434,540.659,538.517,0.0
53546.0,STARLINK-4477,PAYLOAD,2024-08-09 18:04:20,15.08815559,0.0001235,53.2163,123.6227,121.921,238.1902,-0.0013294,-0.00021369,0.0,0 STARLINK-4477,1 53546U 22101V   24222.75301101 -.00021369  00000-0 -13294-2 0  9993,2 53546  53.2163 123.6227 0001235 121.9210 238.1902 15.08815559109355,6917.955,95.439,540.674,538.966,0.0
53546.0,STARLINK-4477,PAYLOAD,2024-08-09 21:15:06,15.08824187,0.0001799,53.216,123.0318,119.2569,240.8603,-0.00092798,-0.0001502,0.0,0 STARLINK-4477,1 53546U 22101V   24222.88549171 -.00015020  00000-0 -92798-3 0  9992,2 53546  53.2160 123.0318 0001799 119.2569 240.8603 15.08824187109376,6917.929,95.439,541.038,538.549,0.0
53546.0,STARLINK-4477,PAYLOAD,2024-08-09 22:50:29,15.08822016,0.0001714,53.2174,122.7352,126.9329,233.182,-0.00084478,-0.00013701,0.0,0 STARLINK-4477,1 53546U 22101V   24222.95173226 -.00013701  00000-0 -84478-3 0  9994,2 53546  53.2174 122.7352 0001714 126.9329 233.1820 15.08822016109387,6917.935,95.439,540.986,538.615,0.0
53546.0,STARLINK-4477,PAYLOAD,2024-08-10 21:05:54,15.08828437,9.83e-05,53.2149,118.5691,106.8272,253.2828,0.00093433,0.00014608,0.0,0 STARLINK-4477,1 53546U 22101V   24223.87910805  .00014608  00000-0  93433-3 0  9994,2 53546  53.2149 118.5691 0000983 106.8272 253.2828 15.08828437109529,6917.916,95.438,540.461,539.101,0.0
53546.0,STARLINK-4477,PAYLOAD,2024-08-10 22:41:18,15.08833895,0.0001703,53.2177,118.2736,127.6636,232.4511,0.0011344,0.00017809,0.0,0 STARLINK-4477,1 53546U 22101V   24223.94534798  .00017809  00000-0  11344-2 0  9991,2 53546  53.2177 118.2736 0001703 127.6636 232.4511 15.08833895109536,6917.899,95.438,540.942,538.586,0.0
53546.0,STARLINK-4477,PAYLOAD,2024-08-11 09:48:59,15.08866855,5.65e-05,53.2161,116.1879,78.5979,281.5077,0.0016459,0.00026023,0.0,0 STARLINK-4477,1 53546U 22101V   24224.40902036  .00026023  00000-0  16459-2 0  9997,2 53546  53.2161 116.1879 0000565  78.5979 281.5077 15.08866855109605,6917.798,95.436,540.054,539.272,0.0
53546.0,STARLINK-4477,PAYLOAD,2024-08-11 22:32:05,15.08834583,0.0001023,53.2151,113.8084,79.3519,280.7588,0.000225,3.294e-05,0.0,0 STARLINK-4477,1 53546U 22101V   24224.93895057  .00003294  00000-0  22500-3 0  9999,2 53546  53.2151 113.8084 0001023  79.3519 280.7588 15.08834583109684,6917.897,95.438,540.47,539.054,0.0
53546.0,STARLINK-4477,PAYLOAD,2024-08-12 03:18:14,15.08849393,0.0001138,53.2161,112.9165,79.3729,280.7391,0.0024213,0.00038467,0.0,0 STARLINK-4477,1 53546U 22101V   24225.13767059  .00038467  00000-0  24213-2 0  9994,2 53546  53.2161 112.9165 0001138  79.3729 280.7391 15.08849393109716,6917.852,95.437,540.504,538.929,0.0
53546.0,STARLINK-4477,PAYLOAD,2024-08-12 17:36:41,15.08882278,8.32e-05,53.2148,110.2386,103.5209,256.5876,0.001689,0.00026726,0.0,0 STARLINK-4477,1 53546U 22101V   24225.73381889  .00026726  00000-0  16890-2 0  9990,2 53546  53.2148 110.2386 0000832 103.5209 256.5876 15.08882278109808,6917.751,95.435,540.192,539.041,0.0
53546.0,STARLINK-4477,PAYLOAD,2024-08-12 22:22:51,15.08876857,8.76e-05,53.2157,109.3478,91.1319,268.9774,0.0013042,0.0002055,0.0,0 STARLINK-4477,1 53546U 22101V   24225.93253602  .00020550  00000-0  13042-2 0  9998,2 53546  53.2157 109.3478 0000876  91.1319 268.9774 15.08876857109834,6917.768,95.435,540.239,539.027,0.0
53546.0,STARLINK-4477,PAYLOAD,2024-08-13 01:33:38,15.08810092,0.000133,53.2159,108.754,112.0508,248.0626,-0.0025126,-0.00040021,0.0,0 STARLINK-4477,1 53546U 22101V   24226.06502671 -.00040021  00000-0 -25126-2 0  9999,2 53546  53.2159 108.7540 0001330 112.0508 248.0626 15.08810092109854,6917.972,95.439,540.757,538.917,0.0
53546.0,STARLINK-4477,PAYLOAD,2024-08-13 09:30:35,15.08781886,0.000127,53.2153,107.2687,81.3319,278.7817,-0.0017755,-0.00028389,0.0,0 STARLINK-4477,1 53546U 22101V   24226.39624176 -.00028389  00000-0 -17755-2 0  9992,2 53546  53.2153 107.2687 0001270  81.3319 278.7817 15.08781886109901,6918.058,95.441,540.802,539.044,0.0
